[{"OBJECT_NAME":"RISAT-2BR2","OBJECT_ID":"2020-081A","EPOCH":"2026-03-09T12:34:56.452800","MEAN_MOTION":15.01602463,"ECCENTRICITY":0.00109054,"INCLINATION":36.898,"RA_OF_ASC_NODE":95.9121,"ARG_OF_PERICENTER":52.9142,"MEAN_ANOMALY":307.2595,"EPHEMERIS_TYPE":0,"CLASSIFICATION_TYPE":"U","NORAD_CAT_ID":46905,"ELEMENT_SET_NO":999,"REV_AT_EPOCH":29248,"BSTAR":0.00037609291,"MEAN_MOTION_DOT":4.901e-5,"MEAN_MOTION_DDOT":0},{"OBJECT_NAME":"CP5","OBJECT_ID":"2012-048F","EPOCH":"2026-03-09T13:13:18.209280","MEAN_MOTION":15.25131456,"ECCENTRICITY":0.0097184,"INCLINATION":64.6452,"RA_OF_ASC_NODE":121.238,"ARG_OF_PERICENTER":206.221,"MEAN_ANOMALY":153.3981,"EPHEMERIS_TYPE":0,"CLASSIFICATION_TYPE":"U","NORAD_CAT_ID":38763,"ELEMENT_SET_NO":999,"REV_AT_EPOCH":10155,"BSTAR":0.00057686,"MEAN_MOTION_DOT":0.00016437,"MEAN_MOTION_DDOT":0}]
